CTC1_L_00522014-29
1 10496U 23563RQ  26075.70037037  .00000000  00000+0  00000-0 0  9995
2 10496  97.9000 156.0000 0000000   0.0000 297.3333 14.79785908    18
CTC1_L_00522014-30
1 10497U 22236KN  26075.70037037  .00000000  00000+0  00000-0 0  9992
2 10497  97.9000 156.0000 0000000   0.0000 307.3333 14.79785908    11
CTC1_L_00522014-31
1 10498U 22051NZ  26075.70037037  .00000000  00000+0  00000-0 0  9998
2 10498  97.9000 156.0000 0000000   0.0000 317.3333 14.79785908    13
CTC1_L_00522014-32
1 10499U 22819AR  26075.70037037  .00000000  00000+0  00000-0 0  9991
2 10499  97.9000 156.0000 0000000   0.0000 327.3333 14.79785908    15
CTC1_L_00522014-33
1 10500U 22294MG  26075.70037037  .00000000  00000+0  00000-0 0  9991
2 10500  97.9000 156.0000 0000000   0.0000 337.3333 14.79785908    19
CTC1_L_00522014-34
1 10501U 26517EP  26075.70037037  .00000000  00000+0  00000-0 0  9994
2 10501  97.9000 156.0000 0000000   0.0000 347.3333 14.79785908    11
CTC1_L_00522014-35
1 10502U 22415QD  26075.70037037  .00000000  00000+0  00000-0 0  9998
2 10502  97.9000 156.0000 0000000   0.0000 357.3333 14.79785908    13
CTC1_L_00522014-36
1 10503U 26308NI  26075.70037037  .00000000  00000+0  00000-0 0  9994
2 10503  97.9000 156.0000 0000000   0.0000   7.3333 14.79785908    16
CTC1_L_00522015-01
1 10504U 26841HF  26075.70037037  .00000000  00000+0  00000-0 0  9997
2 10504  97.9000 168.0000 0000000   0.0000  18.6667 14.79785908    15
CTC1_L_00522015-02
1 10505U 22100DD  26075.70037037  .00000000  00000+0  00000-0 0  9992
2 10505  97.9000 168.0000 0000000   0.0000  28.6667 14.79785908    17
CTC1_L_00522015-03
1 10506U 23506ON  26075.70037037  .00000000  00000+0  00000-0 0  9994
2 10506  97.9000 168.0000 0000000   0.0000  38.6667 14.79785908    19
CTC1_L_00522015-04
1 10507U 24326MA  26075.70037037  .00000000  00000+0  00000-0 0  9996
2 10507  97.9000 168.0000 0000000   0.0000  48.6667 14.79785908    11
CTC1_L_00522015-05
1 10508U 25817JT  26075.70037037  .00000000  00000+0  00000-0 0  9993
2 10508  97.9000 168.0000 0000000   0.0000  58.6667 14.79785908    13
CTC1_L_00522015-06
1 10509U 24148DZ  26075.70037037  .00000000  00000+0  00000-0 0  9990
2 10509  97.9000 168.0000 0000000   0.0000  68.6667 14.79785908    15
CTC1_L_00522015-07
1 10510U 22833KE  26075.70037037  .00000000  00000+0  00000-0 0  9991
2 10510  97.9000 168.0000 0000000   0.0000  78.6667 14.79785908    18
CTC1_L_00522015-08
1 10511U 25474VV  26075.70037037  .00000000  00000+0  00000-0 0  9996
2 10511  97.9000 168.0000 0000000   0.0000  88.6667 14.79785908    10
CTC1_L_00522015-09
1 10512U 22283PQ  26075.70037037  .00000000  00000+0  00000-0 0  9992
2 10512  97.9000 168.0000 0000000   0.0000  98.6667 14.79785908    12
CTC1_L_00522015-10
1 10513U 22477ND  26075.70037037  .00000000  00000+0  00000-0 0  9998
2 10513  97.9000 168.0000 0000000   0.0000 108.6667 14.79785908    15
CTC1_L_00522015-11
1 10514U 23541DQ  26075.70037037  .00000000  00000+0  00000-0 0  9992
2 10514  97.9000 168.0000 0000000   0.0000 118.6667 14.79785908    17
CTC1_L_00522015-12
1 10515U 26208WJ  26075.70037037  .00000000  00000+0  00000-0 0  9996
2 10515  97.9000 168.0000 0000000   0.0000 128.6667 14.79785908    19
CTC1_L_00522015-13
1 10516U 24733ZM  26075.70037037  .00000000  00000+0  00000-0 0  9998
2 10516  97.9000 168.0000 0000000   0.0000 138.6667 14.79785908    11
CTC1_L_00522015-14
1 10517U 24602MX  26075.70037037  .00000000  00000+0  00000-0 0  9994
2 10517  97.9000 168.0000 0000000   0.0000 148.6667 14.79785908    13
CTC1_L_00522015-15
1 10518U 25964HF  26075.70037037  .00000000  00000+0  00000-0 0  9997
2 10518  97.9000 168.0000 0000000   0.0000 158.6667 14.79785908    15
CTC1_L_00522015-16
1 10519U 22302V   26075.70037037  .00000000  00000+0  00000-0 0  9991
2 10519  97.9000 168.0000 0000000   0.0000 168.6667 14.79785908    17
CTC1_L_00522015-17
1 10520U 25470M   26075.70037037  .00000000  00000+0  00000-0 0  9992
2 10520  97.9000 168.0000 0000000   0.0000 178.6667 14.79785908    10
CTC1_L_00522015-18
1 10521U 24173EH  26075.70037037  .00000000  00000+0  00000-0 0  9992
2 10521  97.9000 168.0000 0000000   0.0000 188.6667 14.79785908    12
CTC1_L_00522015-19
1 10522U 25203VK  26075.70037037  .00000000  00000+0  00000-0 0  9998
2 10522  97.9000 168.0000 0000000   0.0000 198.6667 14.79785908    14
CTC1_L_00522015-20
1 10523U 24286DP  26075.70037037  .00000000  00000+0  00000-0 0  9999
2 10523  97.9000 168.0000 0000000   0.0000 208.6667 14.79785908    17
CTC1_L_00522015-21
1 10524U 22223VC  26075.70037037  .00000000  00000+0  00000-0 0  9999
2 10524  97.9000 168.0000 0000000   0.0000 218.6667 14.79785908    19
CTC1_L_00522015-22
1 10525U 25173CE  26075.70037037  .00000000  00000+0  00000-0 0  9997
2 10525  97.9000 168.0000 0000000   0.0000 228.6667 14.79785908    11
CTC1_L_00522015-23
1 10526U 22012YI  26075.70037037  .00000000  00000+0  00000-0 0  9997
2 10526  97.9000 168.0000 0000000   0.0000 238.6667 14.79785908    13
CTC1_L_00522015-24
1 10527U 25855MQ  26075.70037037  .00000000  00000+0  00000-0 0  9996
2 10527  97.9000 168.0000 0000000   0.0000 248.6667 14.79785908    15
CTC1_L_00522015-25
1 10528U 26318LZ  26075.70037037  .00000000  00000+0  00000-0 0  9992
2 10528  97.9000 168.0000 0000000   0.0000 258.6667 14.79785908    17
CTC1_L_00522015-26
1 10529U 25208EE  26075.70037037  .00000000  00000+0  00000-0 0  9990
2 10529  97.9000 168.0000 0000000   0.0000 268.6667 14.79785908    19
CTC1_L_00522015-27
1 10530U 25221SM  26075.70037037  .00000000  00000+0  00000-0 0  9997
2 10530  97.9000 168.0000 0000000   0.0000 278.6667 14.79785908    12
CTC1_L_00522015-28
1 10531U 25595XH  26075.70037037  .00000000  00000+0  00000-0 0  9992
2 10531  97.9000 168.0000 0000000   0.0000 288.6667 14.79785908    14
CTC1_L_00522015-29
1 10532U 23605VJ  26075.70037037  .00000000  00000+0  00000-0 0  9993
2 10532  97.9000 168.0000 0000000   0.0000 298.6667 14.79785908    16
CTC1_L_00522015-30
1 10533U 23006XL  26075.70037037  .00000000  00000+0  00000-0 0  9999
2 10533  97.9000 168.0000 0000000   0.0000 308.6667 14.79785908    19
CTC1_L_00522015-31
1 10534U 23574NT  26075.70037037  .00000000  00000+0  00000-0 0  9990
2 10534  97.9000 168.0000 0000000   0.0000 318.6667 14.79785908    11
CTC1_L_00522015-32
1 10535U 22791OT  26075.70037037  .00000000  00000+0  00000-0 0  9991
2 10535  97.9000 168.0000 0000000   0.0000 328.6667 14.79785908    13
CTC1_L_00522015-33
1 10536U 26039LQ  26075.70037037  .00000000  00000+0  00000-0 0  9991
2 10536  97.9000 168.0000 0000000   0.0000 338.6667 14.79785908    15
CTC1_L_00522015-34
1 10537U 22665TM  26075.70037037  .00000000  00000+0  00000-0 0  9993
2 10537  97.9000 168.0000 0000000   0.0000 348.6667 14.79785908    17
CTC1_L_00522015-35
1 10538U 24345JK  26075.70037037  .00000000  00000+0  00000-0 0  9991
2 10538  97.9000 168.0000 0000000   0.0000 358.6667 14.79785908    19
CTC1_L_00522015-36
1 10539U 22712UB  26075.70037037  .00000000  00000+0  00000-0 0  9998
2 10539  97.9000 168.0000 0000000   0.0000   8.6667 14.79785908    12
CTC1_L_00522016-01
1 10540U 23641GQ  26075.70037037  .00000000  00000+0  00000-0 0  9992
2 10540  97.9000 180.0000 0000000   0.0000  20.0000 14.79785908    17
CTC1_L_00522016-02
1 10541U 22066LX  26075.70037037  .00000000  00000+0  00000-0 0  9993
2 10541  97.9000 180.0000 0000000   0.0000  30.0000 14.79785908    19
CTC1_L_00522016-03
1 10542U 25238DK  26075.70037037  .00000000  00000+0  00000-0 0  9998
2 10542  97.9000 180.0000 0000000   0.0000  40.0000 14.79785908    11
CTC1_L_00522016-04
1 10543U 24648SD  26075.70037037  .00000000  00000+0  00000-0 0  9993
2 10543  97.9000 180.0000 0000000   0.0000  50.0000 14.79785908    13
CTC1_L_00522016-05
1 10544U 26782QX  26075.70037037  .00000000  00000+0  00000-0 0  9995
2 10544  97.9000 180.0000 0000000   0.0000  60.0000 14.79785908    15
CTC1_L_00522016-06
1 10545U 25642NC  26075.70037037  .00000000  00000+0  00000-0 0  9990
2 10545  97.9000 180.0000 0000000   0.0000  70.0000 14.79785908    17
CTC1_L_00522016-07
1 10546U 26236FK  26075.70037037  .00000000  00000+0  00000-0 0  9991
2 10546  97.9000 180.0000 0000000   0.0000  80.0000 14.79785908    19
CTC1_L_00522016-08
1 10547U 22414ET  26075.70037037  .00000000  00000+0  00000-0 0  9996
2 10547  97.9000 180.0000 0000000   0.0000  90.0000 14.79785908    11
CTC1_L_00522016-09
1 10548U 26556WF  26075.70037037  .00000000  00000+0  00000-0 0  9998
2 10548  97.9000 180.0000 0000000   0.0000 100.0000 14.79785908    14
CTC1_L_00522016-10
1 10549U 24703TS  26075.70037037  .00000000  00000+0  00000-0 0  9991
2 10549  97.9000 180.0000 0000000   0.0000 110.0000 14.79785908    16
CTC1_L_00522016-11
1 10550U 24690HG  26075.70037037  .00000000  00000+0  00000-0 0  9998
2 10550  97.9000 180.0000 0000000   0.0000 120.0000 14.79785908    19
CTC1_L_00522016-12
1 10551U 26823KB  26075.70037037  .00000000  00000+0  00000-0 0  9999
2 10551  97.9000 180.0000 0000000   0.0000 130.0000 14.79785908    11
CTC1_L_00522016-13
1 10552U 25774PQ  26075.70037037  .00000000  00000+0  00000-0 0  9994
2 10552  97.9000 180.0000 0000000   0.0000 140.0000 14.79785908    13
CTC1_L_00522016-14
1 10553U 25737HJ  26075.70037037  .00000000  00000+0  00000-0 0  9994
2 10553  97.9000 180.0000 0000000   0.0000 150.0000 14.79785908    15
CTC1_L_00522016-15
1 10554U 26645NC  26075.70037037  .00000000  00000+0  00000-0 0  9994
2 10554  97.9000 180.0000 0000000   0.0000 160.0000 14.79785908    17
CTC1_L_00522016-16
1 10555U 24936DO  26075.70037037  .00000000  00000+0  00000-0 0  9996
2 10555  97.9000 180.0000 0000000   0.0000 170.0000 14.79785908    19
CTC1_L_00522016-17
1 10556U 25544BE  26075.70037037  .00000000  00000+0  00000-0 0  9993
2 10556  97.9000 180.0000 0000000   0.0000 180.0000 14.79785908    11
CTC1_L_00522016-18
1 10557U 22398AR  26075.70037037  .00000000  00000+0  00000-0 0  9998
2 10557  97.9000 180.0000 0000000   0.0000 190.0000 14.79785908    13
